NORAD_CAT_ID,OBJECT_NAME,OBJECT_TYPE,EPOCH,MEAN_MOTION,ECCENTRICITY,INCLINATION,RA_OF_ASC_NODE,ARG_OF_PERICENTER,MEAN_ANOMALY,BSTAR,MEAN_MOTION_DOT,MEAN_MOTION_DDOT,TLE_LINE0,TLE_LINE1,TLE_LINE2,SEMIMAJOR_AXIS,PERIOD,APOGEE,PERIGEE,DECAYED
52117.0,STARLINK-3738,PAYLOAD,2022-08-24 22:00:00,15.08842982,0.0001934,53.2183,122.5936,57.1488,294.4838,-0.0013690999999999,-0.00022013,0.0,0 STARLINK-3738,1 52117U 22029AF  22236.91667824 -.00022013  00000-0 -13691-2 0  9991,2 52117  53.2183 122.5936 0001934  57.1488 294.4838 15.08842982 25628,6917.871,95.437,541.0740000000002,538.398,0.0
52117.0,STARLINK-3738,PAYLOAD,2022-08-25 14:00:01,15.08814675,0.0001839,53.2178,119.5997,63.1347,311.6823,0.0029534,0.00046997,0.0,0 STARLINK-3738,1 52117U 22029AF  22237.58334491  .00046997  00000-0  29534-2 0  9994,2 52117  53.2178 119.5997 0001839  63.1347 311.6823 15.08814675  1303,6917.958000000001,95.439,541.095,538.5509999999998,0.0
52117.0,STARLINK-3738,PAYLOAD,2022-08-25 22:00:00,15.08850344,0.0001976,53.2177,118.105,59.3369,327.0671,-0.001356,-0.00021811,0.0,0 STARLINK-3738,1 52117U 22029AF  22237.91667824 -.00021811  00000-0 -13560-2 0  9992,2 52117  53.2177 118.1050 0001976  59.3369 327.0671 15.08850344  1305,6917.849,95.437,541.081,538.347,0.0
52117.0,STARLINK-3738,PAYLOAD,2022-08-26 06:00:00,15.08855026,0.0001976,53.2173,116.6085,57.6336,340.3636,-0.0012483,-0.00020108,0.0,0 STARLINK-3738,1 52117U 22029AF  22238.25001157 -.00020108  00000-0 -12483-2 0  9992,2 52117  53.2173 116.6085 0001976  57.6336 340.3636 15.08855026 25832,6917.834,95.437,541.066,538.332,0.0
52117.0,STARLINK-3738,PAYLOAD,2022-08-26 14:00:01,15.08828757,0.0001869,53.2172,115.1108,64.9568,344.7142,0.0024956999999999,0.00039643,0.0,0 STARLINK-3738,1 52117U 22029AF  22238.58335648  .00039643  00000-0  24957-2 0  9994,2 52117  53.2172 115.1108 0001869  64.9568 344.7142 15.08828757  1307,6917.915,95.438,541.073,538.487,0.0
52117.0,STARLINK-3738,PAYLOAD,2022-08-26 22:00:00,15.08830228,0.0001931,53.2171,113.6162,59.2242,1.9413,-0.0011645,-0.00018769,0.0,0 STARLINK-3738,1 52117U 22029AF  22238.91667824 -.00018769  00000-0 -11645-2 0  9993,2 52117  53.2171 113.6162 0001931  59.2242   1.9413 15.08830228  1304,6917.91,95.438,541.111,538.439,0.0
52117.0,STARLINK-3738,PAYLOAD,2022-08-27 14:00:01,15.08814434,0.0001855999999999,53.2169,110.6217,64.7055,19.6207,0.0024481999999999,0.00038863,0.0,0 STARLINK-3738,1 52117U 22029AF  22239.58334491  .00038863  00000-0  24482-2 0  9996,2 52117  53.2169 110.6217 0001856  64.7055  19.6207 15.08814434  1306,6917.959,95.439,541.1080000000002,538.54,0.0
52117.0,STARLINK-3738,PAYLOAD,2022-08-27 22:00:00,15.08840525,0.0002006999999999,53.2168,109.1271,60.0914,35.8185,-0.00088667,-0.00014372,0.0,0 STARLINK-3738,1 52117U 22029AF  22239.91667824 -.00014372  00000-0 -88667-3 0  9999,2 52117  53.2168 109.1271 0002007  60.0914  35.8185 15.08840525  1305,6917.879,95.438,541.132,538.355,0.0
52117.0,STARLINK-3738,PAYLOAD,2022-08-28 06:00:00,15.08856935,0.0001976,53.2167,107.6302,58.5459,48.9526,-0.0014148,-0.00022745,0.0,0 STARLINK-3738,1 52117U 22029AF  22240.25001157 -.00022745  00000-0 -14148-2 0  9994,2 52117  53.2167 107.6302 0001976  58.5459  48.9526 15.08856935 26136,6917.829000000002,95.436,541.061,538.327,0.0
52117.0,STARLINK-3738,PAYLOAD,2022-08-28 14:00:01,15.08836942,0.0001936,53.2169,106.1324,65.4436,53.6644,0.0022829,0.00036229,0.0,0 STARLINK-3738,1 52117U 22029AF  22240.58334491  .00036229  00000-0  22829-2 0  9995,2 52117  53.2169 106.1324 0001936  65.4436  53.6644 15.08836942  1306,6917.89,95.438,541.094,538.415,0.0
52117.0,STARLINK-3738,PAYLOAD,2022-08-28 22:00:00,15.08857488,0.000207,53.2168,104.6377,60.1664,70.547,-0.00077397,-0.00012591,0.0,0 STARLINK-3738,1 52117U 22029AF  22240.91667824 -.00012591  00000-0 -77397-3 0  9990,2 52117  53.2168 104.6377 0002070  60.1664  70.5470 15.08857488  1304,6917.8269999999975,95.436,541.124,538.26,0.0
52117.0,STARLINK-3738,PAYLOAD,2022-08-29 14:00:01,15.08827902,0.0001901,53.2172,101.643,64.9788,88.9475,0.0019024,0.00030109,0.0,0 STARLINK-3738,1 52117U 22029AF  22241.58334491  .00030109  00000-0  19024-2 0  9990,2 52117  53.2172 101.6430 0001901  64.9788  88.9475 15.08827902  1303,6917.917,95.438,541.097,538.467,0.0
52117.0,STARLINK-3738,PAYLOAD,2022-08-29 22:00:00,15.08839559,0.0002044999999999,53.2172,100.1483,59.4545,106.0653,-3.4769e-05,-8.42e-06,0.0,0 STARLINK-3738,1 52117U 22029AF  22241.91667824 -.00000842  00000-0 -34769-4 0  9994,2 52117  53.2172 100.1483 0002045  59.4545 106.0653 15.08839559  1306,6917.882,95.438,541.161,538.332,0.0
52117.0,STARLINK-3738,PAYLOAD,2022-08-30 06:00:00,15.08865017,0.0001966999999999,53.2172,98.6511,59.7751,117.334,-0.002209,-0.00035297,0.0,0 STARLINK-3738,1 52117U 22029AF  22242.25001157 -.00035297  00000-0 -22090-2 0  9997,2 52117  53.2172  98.6511 0001967  59.7751 117.3340 15.08865017 26430,6917.804,95.436,541.03,538.308,0.0
52117.0,STARLINK-3738,PAYLOAD,2022-08-30 14:00:01,15.08840294,0.0001867,53.2176,97.1536,65.5747,123.1437,-0.00062649,-0.00010245,0.0,0 STARLINK-3738,1 52117U 22029AF  22242.58334491 -.00010245  00000-0 -62649-3 0  9994,2 52117  53.2176  97.1536 0001867  65.5747 123.1437 15.08840294  1305,6917.879,95.438,541.036,538.453,0.0
52117.0,STARLINK-3738,PAYLOAD,2022-08-30 22:00:00,15.08823902,0.0001964,53.2175,95.6589,58.6201,141.6939,0.00037654,5.707e-05,0.0,0 STARLINK-3738,1 52117U 22029AF  22242.91667824  .00005707  00000-0  37654-3 0  9993,2 52117  53.2175  95.6589 0001964  58.6201 141.6939 15.08823902  1300,6917.93,95.439,541.153,538.436,0.0
52117.0,STARLINK-3738,PAYLOAD,2022-08-31 14:00:01,15.08837336,0.0001827,53.2178,92.6644,66.8141,156.6684,0.001297,0.00020413,0.0,0 STARLINK-3738,1 52117U 22029AF  22243.58334491  .00020413  00000-0  12970-2 0  9992,2 52117  53.2178  92.6644 0001827  66.8141 156.6684 15.08837336  1303,6917.889,95.438,541.0169999999998,538.49,0.0
52117.0,STARLINK-3738,PAYLOAD,2022-08-31 22:00:00,15.08835694,0.0001956999999999,53.2177,91.1698,59.9988,175.085,0.00073207,0.00011381,0.0,0 STARLINK-3738,1 52117U 22029AF  22243.91667824  .00011381  00000-0  73207-3 0  9993,2 52117  53.2177  91.1698 0001957  59.9988 175.0850 15.08835694 26684,6917.894,95.438,541.112,538.405,0.0
52117.0,STARLINK-3738,PAYLOAD,2022-09-01 14:00:01,15.08833771,0.0001738,53.2179,88.1753,67.6994,190.6445,-0.00014749,-2.634e-05,0.0,0 STARLINK-3738,1 52117U 22029AF  22244.58335648 -.00002634  00000-0 -14749-3 0  9992,2 52117  53.2179  88.1753 0001738  67.6994 190.6445 15.08833771  1303,6917.899,95.438,540.967,538.562,0.0
52117.0,STARLINK-3738,PAYLOAD,2022-09-01 22:00:00,15.08817295,0.0001846,53.2178,86.6808,60.1036,209.7688,0.0010898,0.00017088,0.0,0 STARLINK-3738,1 52117U 22029AF  22244.91667824  .00017088  00000-0  10898-2 0  9990,2 52117  53.2178  86.6808 0001846  60.1036 209.7688 15.08817295 26830,6917.95,95.439,541.092,538.538,0.0
52117.0,STARLINK-3738,PAYLOAD,2022-09-02 14:00:01,15.08838676,0.0001727,53.2177,83.6866,69.163,223.8659,0.00036907,5.59e-05,0.0,0 STARLINK-3738,1 52117U 22029AF  22245.58334491  .00005590  00000-0  36907-3 0  9990,2 52117  53.2177  83.6866 0001727  69.1630 223.8659 15.08838676  1303,6917.884,95.438,540.944,538.555,0.0
52117.0,STARLINK-3738,PAYLOAD,2022-09-02 22:00:01,15.08822919,0.0001858,53.2177,82.19200000000002,61.92100000000001,242.7688,0.0014053,0.00022138,0.0,0 STARLINK-3738,1 52117U 22029AF  22245.91668981  .00022138  00000-0  14053-2 0  9995,2 52117  53.2177  82.1920 0001858  61.9210 242.7688 15.08822919 26983,6917.933000000001,95.439,541.0830000000002,538.512,0.0
52117.0,STARLINK-3738,PAYLOAD,2022-09-03 14:00:01,15.0885402,0.0001758,53.2177,79.1978,69.7367,258.0733,0.00014985,2.098e-05,0.0,0 STARLINK-3738,1 52117U 22029AF  22246.58334491  .00002098  00000-0  14985-3 0  9993,2 52117  53.2177  79.1978 0001758  69.7367 258.0733 15.08854020  1308,6917.8380000000025,95.437,540.919,538.486,0.0
52117.0,STARLINK-3738,PAYLOAD,2022-09-03 22:00:00,15.08839451,0.0001855,53.2177,77.7033,61.9428,277.4821,0.0013007,0.00020473,0.0,0 STARLINK-3738,1 52117U 22029AF  22246.91667824  .00020473  00000-0  13007-2 0  9999,2 52117  53.2177  77.7033 0001855  61.9428 277.4821 15.08839451 27137,6917.882,95.438,541.03,538.464,0.0
52117.0,STARLINK-3738,PAYLOAD,2022-09-04 14:00:01,15.08848523,0.0001686999999999,53.2178,74.7089,67.1777,295.5144,-7.253899999999999e-05,-1.443e-05,0.0,0 STARLINK-3738,1 52117U 22029AF  22247.58335648 -.00001443  00000-0 -72539-4 0  9994,2 52117  53.2178  74.7089 0001687  67.1777 295.5144 15.08848523 27245,6917.854,95.437,540.886,538.552,0.0
52117.0,STARLINK-3738,PAYLOAD,2022-09-04 20:00:01,15.08854612,0.0001776,53.2177,73.58800000000002,60.2077,221.1302,-0.0016605,-0.00026629,0.0,0 STARLINK-3738,1 52117U 22029AF  22247.83334491 -.00026629  00000-0 -16605-2 0  9990,2 52117  53.2177  73.5880 0001776  60.2077 221.1302 15.08854612  1302,6917.8359999999975,95.437,540.929,538.472,0.0
52117.0,STARLINK-3738,PAYLOAD,2022-09-05 14:00:01,15.08865528,0.0001614,53.2181,70.22,63.4955,333.9309,-0.0021617,-0.00034551,0.0,0 STARLINK-3738,1 52117U 22029AF  22248.58334491 -.00034551  00000-0 -21617-2 0  9995,2 52117  53.2181  70.2200 0001614  63.4955 333.9309 15.08865528  1305,6917.802,95.436,540.784,538.5509999999998,0.0
52117.0,STARLINK-3738,PAYLOAD,2022-09-05 22:00:00,15.08811175,0.000171,53.2182,68.7252,55.7432,353.2998,0.0013419,0.00021116,0.0,0 STARLINK-3738,1 52117U 22029AF  22248.91667824  .00021116  00000-0  13419-2 0  9993,2 52117  53.2182  68.7252 0001710  55.7432 353.2998 15.08811175 27447,6917.968000000003,95.439,541.016,538.651,0.0
52117.0,STARLINK-3738,PAYLOAD,2022-09-06 12:00:00,15.08804328,0.0001673,53.2185,66.1046,65.1003,274.1854,0.0016382,0.00025855,0.0,0 STARLINK-3738,1 52117U 22029AF  22249.50001157  .00025855  00000-0  16382-2 0  9996,2 52117  53.2185  66.1046 0001673  65.1003 274.1854 15.08804328 27523,6917.989000000001,95.44,541.012,538.697,0.0
